NORAD_CAT_ID,OBJECT_NAME,OBJECT_TYPE,EPOCH,MEAN_MOTION,ECCENTRICITY,INCLINATION,RA_OF_ASC_NODE,ARG_OF_PERICENTER,MEAN_ANOMALY,BSTAR,MEAN_MOTION_DOT,MEAN_MOTION_DDOT,TLE_LINE0,TLE_LINE1,TLE_LINE2,SEMIMAJOR_AXIS,PERIOD,APOGEE,PERIGEE,DECAYED
53601.0,STARLINK-4675,PAYLOAD,2023-10-22 00:03:18,15.08849448,0.0001262,53.2157,188.1548,98.5881,261.5254,0.00084416,0.00013176,0.0,0 STARLINK-4675,1 53601U 22104P   23295.00229764  .00013176  00000-0  84416-3 0  9999,2 53601  53.2157 188.1548 0001262  98.5881 261.5254 15.08849448 64326,6917.852,95.437,540.59,538.843,0.0
53601.0,STARLINK-4675,PAYLOAD,2023-10-22 20:43:20,15.08820731,0.0001327,53.2165,184.2886,104.3167,255.7973,0.00031387,4.708e-05,0.0,0 STARLINK-4675,1 53601U 22104P   23295.86343251  .00004708  00000-0  31387-3 0  9991,2 53601  53.2165 184.2886 0001327 104.3167 255.7973 15.08820731 63766,6917.939,95.439,540.722,538.886,0.0
53601.0,STARLINK-4675,PAYLOAD,2023-10-22 22:18:43,15.08817321,0.0001312,53.2165,183.9912,103.3995,256.7144,0.00026717,3.964e-05,0.0,0 STARLINK-4675,1 53601U 22104P   23295.92967416  .00003964  00000-0  26717-3 0  9997,2 53601  53.2165 183.9912 0001312 103.3995 256.7144 15.08817321 64464,6917.95,95.439,540.722,538.907,0.0
53601.0,STARLINK-4675,PAYLOAD,2023-10-23 22:09:32,15.08832261,0.0001188,53.2158,179.5314,73.2169,286.8953,0.00069185,0.00010738,0.0,0 STARLINK-4675,1 53601U 22104P   23296.92328712  .00010738  00000-0  69185-3 0  9991,2 53601  53.2158 179.5314 0001188  73.2169 286.8953 15.08832261 64611,6917.904,95.438,540.591,538.947,0.0
53601.0,STARLINK-4675,PAYLOAD,2023-10-24 01:20:18,15.08838571,0.0001194,53.2157,178.9352,75.9959,284.1166,0.00080521,0.0001255,0.0,0 STARLINK-4675,1 53601U 22104P   23297.05576660  .00012550  00000-0  80521-3 0  9994,2 53601  53.2157 178.9352 0001194  75.9959 284.1166 15.08838571 63940,6917.885,95.438,540.576,538.924,0.0
53601.0,STARLINK-4675,PAYLOAD,2023-10-24 23:35:41,15.08875758,0.0001145,53.2153,174.7737,72.4938,287.618,0.0011446,0.00017993,0.0,0 STARLINK-4675,1 53601U 22104P   23297.98311434  .00017993  00000-0  11446-2 0  9997,2 53601  53.2153 174.7737 0001145  72.4938 287.6180 15.08875758 64080,6917.771,95.435,540.428,538.844,0.0
53601.0,STARLINK-4675,PAYLOAD,2023-10-25 21:51:04,15.08857615,0.0001053,53.215,170.6094,86.8128,273.2985,0.00053377,8.221e-05,0.0,0 STARLINK-4675,1 53601U 22104P   23298.91047076  .00008221  00000-0  53377-3 0  9993,2 53601  53.2150 170.6094 0001053  86.8128 273.2985 15.08857615 64914,6917.827,95.436,540.42,538.963,0.0
53601.0,STARLINK-4675,PAYLOAD,2023-10-26 01:01:50,15.08854389,0.0001005,53.2156,170.0153,94.4852,265.6255,0.00046456,7.116e-05,0.0,0 STARLINK-4675,1 53601U 22104P   23299.04295014  .00007116  00000-0  46456-3 0  9997,2 53601  53.2156 170.0153 0001005  94.4852 265.6255 15.08854389 64242,6917.836,95.437,540.397,539.006,0.0
53601.0,STARLINK-4675,PAYLOAD,2023-10-26 21:41:51,15.08848332,0.0001417,53.2152,166.1467,70.1286,289.9859,0.00032144,4.833e-05,0.0,0 STARLINK-4675,1 53601U 22104P   23299.90407147  .00004833  00000-0  32144-3 0  9996,2 53601  53.2152 166.1467 0001417  70.1286 289.9859 15.08848332 65062,6917.855,95.437,540.7,538.74,0.0
53601.0,STARLINK-4675,PAYLOAD,2023-10-27 08:49:33,15.08846614,0.0001429,53.2145,164.0677,77.6773,282.4379,0.00025074,3.706e-05,0.0,0 STARLINK-4675,1 53601U 22104P   23300.36775134  .00003706  00000-0  25074-3 0  9995,2 53601  53.2145 164.0677 0001429  77.6773 282.4379 15.08846614 65134,6917.86,95.437,540.714,538.737,0.0
53601.0,STARLINK-4675,PAYLOAD,2023-10-27 21:32:38,15.08842651,0.0001283,53.2158,161.6856,110.7956,249.3174,0.00013579,1.874e-05,0.0,0 STARLINK-4675,1 53601U 22104P   23300.89767132  .00001874  00000-0  13579-3 0  9993,2 53601  53.2158 161.6856 0001283 110.7956 249.3174 15.08842651 65211,6917.872,95.437,540.625,538.85,0.0
53601.0,STARLINK-4675,PAYLOAD,2023-10-28 21:23:24,15.08871742,0.0001477,53.2148,157.2289,80.8976,279.2183,0.00056969,8.798e-05,0.0,0 STARLINK-4675,1 53601U 22104P   23301.89125992  .00008798  00000-0  56969-3 0  9998,2 53601  53.2148 157.2289 0001477  80.8976 279.2183 15.08871742 64679,6917.783,95.436,540.67,538.627,0.0
53601.0,STARLINK-4675,PAYLOAD,2023-10-29 00:34:11,15.08873777,0.0001458,53.2149,156.6337,84.1224,275.9935,0.00072066,0.0001121,0.0,0 STARLINK-4675,1 53601U 22104P   23302.02373939  .00011210  00000-0  72066-3 0  9999,2 53601  53.2149 156.6337 0001458  84.1224 275.9935 15.08873777 65386,6917.777,95.435,540.651,538.634,0.0
53601.0,STARLINK-4675,PAYLOAD,2023-10-29 18:03:27,15.08834576,0.0001321,53.2159,153.3636,89.5877,270.5266,3.8513e-05,3.25e-06,0.0,0 STARLINK-4675,1 53601U 22104P   23302.75239638  .00000325  00000-0  38513-4 0  9991,2 53601  53.2159 153.3636 0001321  89.5877 270.5266 15.08834576 64803,6917.897,95.438,540.676,538.848,0.0
53601.0,STARLINK-4675,PAYLOAD,2023-10-29 21:14:13,15.08836018,0.0001345,53.216,152.7674,98.0071,262.1074,9.8901e-05,1.286e-05,0.0,0 STARLINK-4675,1 53601U 22104P   23302.88487549  .00001286  00000-0  98901-4 0  9995,2 53601  53.2160 152.7674 0001345  98.0071 262.1074 15.08836018 65513,6917.893,95.438,540.688,538.827,0.0
53601.0,STARLINK-4675,PAYLOAD,2023-10-30 16:18:50,15.08843383,0.0001272,53.2148,149.1998,96.8699,263.2438,2.7279e-05,1.46e-06,0.0,0 STARLINK-4675,1 53601U 22104P   23303.67975122  .00000146  00000-0  27279-4 0  9996,2 53601  53.2148 149.1998 0001272  96.8699 263.2438 15.08843383 64944,6917.87,95.437,540.615,538.855,0.0
53601.0,STARLINK-4675,PAYLOAD,2023-10-31 06:37:18,15.08848983,0.0001283,53.2148,146.5236,96.6163,263.4976,0.00031468,4.725e-05,0.0,0 STARLINK-4675,1 53601U 22104P   23304.27590892  .00004725  00000-0  31468-3 0  9991,2 53601  53.2148 146.5236 0001283  96.6163 263.4976 15.08848983 65723,6917.853,95.437,540.605,538.83,0.0
53601.0,STARLINK-4675,PAYLOAD,2023-10-31 20:55:46,15.08858392,0.0001203,53.2145,143.8471,96.1556,263.9573,0.0003922,5.963e-05,0.0,0 STARLINK-4675,1 53601U 22104P   23304.87206230  .00005963  00000-0  39220-3 0  9996,2 53601  53.2145 143.8471 0001203  96.1556 263.9573 15.08858392 65121,6917.824,95.436,540.521,538.857,0.0
53601.0,STARLINK-4675,PAYLOAD,2023-11-01 12:49:38,15.08838192,0.0001212,53.2142,140.8735,90.7373,269.3757,-4.1595e-05,-9.5e-06,0.0,0 STARLINK-4675,1 53601U 22104P   23305.53446923 -.00000950  00000-0 -41595-4 0  9997,2 53601  53.2142 140.8735 0001212  90.7373 269.3757 15.08838192 65226,6917.886,95.438,540.589,538.912,0.0
53601.0,STARLINK-4675,PAYLOAD,2023-11-01 19:11:10,15.08834575,0.00013,53.2146,139.6837,86.7804,273.3337,-5.8466e-05,-1.218e-05,0.0,0 STARLINK-4675,1 53601U 22104P   23305.79943217 -.00001218  00000-0 -58466-4 0  9996,2 53601  53.2146 139.6837 0001300  86.7804 273.3337 15.08834575 65951,6917.897,95.438,540.661,538.863,0.0
53601.0,STARLINK-4675,PAYLOAD,2023-11-02 12:40:25,15.08827188,0.000106,53.2146,136.4126,91.0457,269.0656,0.00020865,3.033e-05,0.0,0 STARLINK-4675,1 53601U 22104P   23306.52807820  .00003033  00000-0  20865-3 0  9993,2 53601  53.2146 136.4126 0001060  91.0457 269.0656 15.08827188 65377,6917.92,95.438,540.518,539.051,0.0
53601.0,STARLINK-4675,PAYLOAD,2023-11-02 22:12:44,15.08838237,0.0001354,53.2143,134.6285,87.5675,272.5472,0.00068307,0.00010599,0.0,0 STARLINK-4675,1 53601U 22104P   23306.92552035  .00010599  00000-0  68307-3 0  9990,2 53601  53.2143 134.6285 0001354  87.5675 272.5472 15.08838237 66124,6917.886,95.438,540.687,538.814,0.0
53601.0,STARLINK-4675,PAYLOAD,2023-11-03 12:31:13,15.08841926,0.0001386,53.2144,131.9519,88.9252,271.1899,0.00041653,6.348e-05,0.0,0 STARLINK-4675,1 53601U 22104P   23307.52168193  .00006348  00000-0  41653-3 0  9997,2 53601  53.2144 131.9519 0001386  88.9252 271.1899 15.08841926 66213,6917.875,95.437,540.698,538.781,0.0
53601.0,STARLINK-4675,PAYLOAD,2023-11-03 18:52:45,15.08847585,0.0001393,53.2149,130.7625,88.7419,271.3733,0.0005056,7.769e-05,0.0,0 STARLINK-4675,1 53601U 22104P   23307.78664079  .00007769  00000-0  50560-3 0  9994,2 53601  53.2149 130.7625 0001393  88.7419 271.3733 15.08847585 65567,6917.857,95.437,540.686,538.759,0.0
53601.0,STARLINK-4675,PAYLOAD,2023-11-03 22:03:32,15.08847692,0.000139,53.2151,130.1679,87.4564,272.6587,0.00051825,7.971e-05,0.0,0 STARLINK-4675,1 53601U 22104P   23307.91912043  .00007971  00000-0  51825-3 0  9996,2 53601  53.2151 130.1679 0001390  87.4564 272.6587 15.08847692 66276,6917.857,95.437,540.683,538.76,0.0
53601.0,STARLINK-4675,PAYLOAD,2023-11-04 12:22:00,15.08841752,0.0001524,53.2153,127.4916,83.7601,276.3565,0.00039436,5.994e-05,0.0,0 STARLINK-4675,1 53601U 22104P   23308.51528349  .00005994  00000-0  39436-3 0  9992,2 53601  53.2153 127.4916 0001524  83.7601 276.3565 15.08841752 66369,6917.875,95.437,540.794,538.686,0.0
53601.0,STARLINK-4675,PAYLOAD,2023-11-04 18:43:33,15.08839467,0.0001414,53.2154,126.3019,88.4941,271.6213,0.00018818,2.708e-05,0.0,0 STARLINK-4675,1 53601U 22104P   23308.78024381  .00002708  00000-0  18818-3 0  9999,2 53601  53.2154 126.3019 0001414  88.4941 271.6213 15.08839467 65715,6917.882,95.438,540.725,538.769,0.0
53601.0,STARLINK-4675,PAYLOAD,2023-11-05 12:12:47,15.08849229,0.0001574,53.2161,123.0322,72.7409,287.3755,0.00036803,5.576e-05,0.0,0 STARLINK-4675,1 53601U 22104P   23309.50888305  .00005576  00000-0  36803-3 0  9994,2 53601  53.2161 123.0322 0001574  72.7409 287.3755 15.08849229 66517,6917.852,95.437,540.806,538.628,0.0
53601.0,STARLINK-4675,PAYLOAD,2023-11-05 18:34:19,15.08851664,0.0001381,53.2155,121.8418,87.9875,272.1275,0.00032262,4.852e-05,0.0,0 STARLINK-4675,1 53601U 22104P   23309.77383922  .00004852  00000-0  32262-3 0  9999,2 53601  53.2155 121.8418 0001381  87.9875 272.1275 15.08851664 66552,6917.845,95.437,540.665,538.754,0.0
53601.0,STARLINK-4675,PAYLOAD,2023-11-06 12:03:33,15.08859044,0.0001468,53.2155,118.5693,101.2498,258.8659,0.00038645,5.871e-05,0.0,0 STARLINK-4675,1 53601U 22104P   23310.50247302  .00005871  00000-0  38645-3 0  9996,2 53601  53.2155 118.5693 0001468 101.2498 258.8659 15.08859044 65979,6917.822,95.436,540.703,538.672,0.0
